{"type": "FeatureCollection", "features": [ {"type": "Feature", "properties": {"norad_id": 41785, "name": "ALSAT 1B", "group": "resource", "lat": -82.0978096205686, "lon": 91.03165199308991, "alt_km": 668.6529855904855, "timestamp": "2025-12-25T16:53:14.311349+00:00", "meta": {"OBJECT_NAME": "ALSAT 1B", "OBJECT_ID": "2016-059C", "EPOCH": "2025-12-25T07:30:06.689088", "MEAN_MOTION": 14.72087265, "ECCENTRICITY": 0.00107379, "INCLINATION": 97.7808, "RA_OF_ASC_NODE": 10.5591, "ARG_OF_PERICENTER": 68.2794, "MEAN_ANOMALY": 291.9556, "EPHEMERIS_TYPE": 0, "CLASSIFICATION_TYPE": "U", "NORAD_CAT_ID": 41785, "ELEMENT_SET_NO": 999, "REV_AT_EPOCH": 49499, "BSTAR": 3.9228179e-05, "MEAN_MOTION_DOT": 2e-06, "MEAN_MOTION_DDOT": 0}, "tle": {"line1": "1 41785U 16059C   25359.31257742  .00000200  00000+0  39228-4 0  9990", "line2": "2 41785  97.7808  10.5591 0010737  68.2794 291.9556 14.72087265494995"}}, "geometry": {"type": "Point", "coordinates": [91.03165199308991, -82.0978096205686]}}, {"type": "Feature", "properties": {"norad_id": 41787, "name": "PATHFINDER 1", "group": "resource", "lat": 50.26915894970066, "lon": -168.61410613949715, "alt_km": 663.9819690134946, "timestamp": "2025-12-25T16:53:14.311359+00:00", "meta": {"OBJECT_NAME": "PATHFINDER 1", "OBJECT_ID": "2016-059E", "EPOCH": "2025-12-25T06:29:03.730848", "MEAN_MOTION": 14.67342425, "ECCENTRICITY": 0.00295936, "INCLINATION": 97.8139, "RA_OF_ASC_NODE": 1.4623, "ARG_OF_PERICENTER": 42.9383, "MEAN_ANOMALY": 317.4125, "EPHEMERIS_TYPE": 0, "CLASSIFICATION_TYPE": "U", "NORAD_CAT_ID": 41787, "ELEMENT_SET_NO": 999, "REV_AT_EPOCH": 49420, "BSTAR": 0.00015313818, "MEAN_MOTION_DOT": 8.24e-06, "MEAN_MOTION_DDOT": 0}, "tle": {"line1": "1 41787U 16059E   25359.27018207  .00000824  00000+0  15314-3 0  9999", "line2": "2 41787  97.8139   1.4623 0029593  42.9383 317.4125 14.67342425494209"}}, "geometry": {"type": "Point", "coordinates": [-168.61410613949715, 50.26915894970066]}}, {"type": "Feature", "properties": {"norad_id": 41790, "name": "SCATSAT 1", "group": "resource", "lat": -56.15893244403955, "lon": 68.86818322475439, "alt_km": 671.6190133030086, "timestamp": "2025-12-25T16:53:14.311387+00:00", "meta": {"OBJECT_NAME": "SCATSAT 1", "OBJECT_ID": "2016-059H", "EPOCH": "2025-12-25T02:31:56.912448", "MEAN_MOTION": 14.78975153, "ECCENTRICITY": 0.00564641, "INCLINATION": 98.1447, "RA_OF_ASC_NODE": 55.9294, "ARG_OF_PERICENTER": 89.0623, "MEAN_ANOMALY": 271.7057, "EPHEMERIS_TYPE": 0, "CLASSIFICATION_TYPE": "U", "NORAD_CAT_ID": 41790, "ELEMENT_SET_NO": 999, "REV_AT_EPOCH": 7585, "BSTAR": 0.00020344373, "MEAN_MOTION_DOT": 1.486e-05, "MEAN_MOTION_DDOT": 0}, "tle": {"line1": "1 41790U 16059H   25359.10551982  .00001486  00000+0  20344-3 0  9991", "line2": "2 41790  98.1447  55.9294 0056464  89.0623 271.7057 14.78975153 75857"}}, "geometry": {"type": "Point", "coordinates": [68.86818322475439, -56.15893244403955]}}, {"type": "Feature", "properties": {"norad_id": 41875, "name": "GOKTURK 1A", "group": "resource", "lat": -5.698575574678543, "lon": -107.28543832957335, "alt_km": 687.7905134651492, "timestamp": "2025-12-25T16:53:14.311412+00:00", "meta": {"OBJECT_NAME": "GOKTURK 1A", "OBJECT_ID": "2016-073A", "EPOCH": "2025-12-25T07:03:48.676032", "MEAN_MOTION": 14.62794525, "ECCENTRICITY": 0.0001276, "INCLINATION": 98.1426, "RA_OF_ASC_NODE": 251.4922, "ARG_OF_PERICENTER": 80.8661, "MEAN_ANOMALY": 279.2685, "EPHEMERIS_TYPE": 0, "CLASSIFICATION_TYPE": "U", "NORAD_CAT_ID": 41875, "ELEMENT_SET_NO": 999, "REV_AT_EPOCH": 48340, "BSTAR": 0.0001671439, "MEAN_MOTION_DOT": 8.06e-06, "MEAN_MOTION_DDOT": 0}, "tle": {"line1": "1 41875U 16073A   25359.29431338  .00000806  00000+0  16714-3 0  9994", "line2": "2 41875  98.1426 251.4922 0001276  80.8661 279.2685 14.62794525483400"}}, "geometry": {"type": "Point", "coordinates": [-107.28543832957335, -5.698575574678543]}}, {"type": "Feature", "properties": {"norad_id": 41877, "name": "RESOURCESAT-2A", "group": "resource", "lat": -73.13228007471741, "lon": 100.10372610338858, "alt_km": 827.1196126181139, "timestamp": "2025-12-25T16:53:14.311425+00:00", "meta": {"OBJECT_NAME": "RESOURCESAT-2A", "OBJECT_ID": "2016-074A", "EPOCH": "2025-12-25T07:06:25.598304", "MEAN_MOTION": 14.21605075, "ECCENTRICITY": 0.00016311, "INCLINATION": 98.7738, "RA_OF_ASC_NODE": 69.0783, "ARG_OF_PERICENTER": 200.0359, "MEAN_ANOMALY": 160.0754, "EPHEMERIS_TYPE": 0, "CLASSIFICATION_TYPE": "U", "NORAD_CAT_ID": 41877, "ELEMENT_SET_NO": 999, "REV_AT_EPOCH": 46959, "BSTAR": 6.317801e-05, "MEAN_MOTION_DOT": 9.4e-07, "MEAN_MOTION_DDOT": 0}, "tle": {"line1": "1 41877U 16074A   25359.29612961  .00000094  00000+0  63178-4 0  9996", "line2": "2 41877  98.7738  69.0783 0001631 200.0359 160.0754 14.21605075469591"}}, "geometry": {"type": "Point", "coordinates": [100.10372610338858, -73.13228007471741]}}, {"type": "Feature", "properties": {"norad_id": 41948, "name": "CARTOSAT-2D", "group": "resource", "lat": 18.45721587814262, "lon": -120.49868996745684, "alt_km": 506.01528409392085, "timestamp": "2025-12-25T16:53:14.311437+00:00", "meta": {"OBJECT_NAME": "CARTOSAT-2D", "OBJECT_ID": "2017-008A", "EPOCH": "2025-12-25T06:41:43.337184", "MEAN_MOTION": 15.19189174, "ECCENTRICITY": 0.00054642, "INCLINATION": 97.4369, "RA_OF_ASC_NODE": 56.5845, "ARG_OF_PERICENTER": 117.6949, "MEAN_ANOMALY": 242.484, "EPHEMERIS_TYPE": 0, "CLASSIFICATION_TYPE": "U", "NORAD_CAT_ID": 41948, "ELEMENT_SET_NO": 999, "REV_AT_EPOCH": 49117, "BSTAR": 0.00026495083, "MEAN_MOTION_DOT": 5.509e-05, "MEAN_MOTION_DDOT": 0}, "tle": {"line1": "1 41948U 17008A   25359.27897381  .00005509  00000+0  26495-3 0  9998", "line2": "2 41948  97.4369  56.5845 0005464 117.6949 242.4840 15.19189174491177"}}, "geometry": {"type": "Point", "coordinates": [-120.49868996745684, 18.45721587814262]}}, {"type": "Feature", "properties": {"norad_id": 42063, "name": "SENTINEL-2B", "group": "resource", "lat": -37.37461436806259, "lon": 78.58126737940725, "alt_km": 795.8747023290989, "timestamp": "2025-12-25T16:53:14.311448+00:00", "meta": {"OBJECT_NAME": "SENTINEL-2B", "OBJECT_ID": "2017-013A", "EPOCH": "2025-12-25T06:59:38.466816", "MEAN_MOTION": 14.30815216, "ECCENTRICITY": 0.00011792, "INCLINATION": 98.5698, "RA_OF_ASC_NODE": 71.5607, "ARG_OF_PERICENTER": 91.5448, "MEAN_ANOMALY": 268.587, "EPHEMERIS_TYPE": 0, "CLASSIFICATION_TYPE": "U", "NORAD_CAT_ID": 42063, "ELEMENT_SET_NO": 999, "REV_AT_EPOCH": 45977, "BSTAR": 1.4225472e-05, "MEAN_MOTION_DOT": -6e-08, "MEAN_MOTION_DDOT": 0}, "tle": {"line1": "1 42063U 17013A   25359.29141744 -.00000006  00000+0  14225-4 0  9997", "line2": "2 42063  98.5698  71.5607 0001179  91.5448 268.5870 14.30815216459776"}}, "geometry": {"type": "Point", "coordinates": [78.58126737940725, -37.37461436806259]}}, {"type": "Feature", "properties": {"norad_id": 42767, "name": "CARTOSAT-2E", "group": "resource", "lat": 69.1047232935622, "lon": 37.063654516324654, "alt_km": 501.95326056605154, "timestamp": "2025-12-25T16:53:14.311458+00:00", "meta": {"OBJECT_NAME": "CARTOSAT-2E", "OBJECT_ID": "2017-036C", "EPOCH": "2025-12-25T07:05:36.925728", "MEAN_MOTION": 15.19195587, "ECCENTRICITY": 0.00026042, "INCLINATION": 97.4537, "RA_OF_ASC_NODE": 56.7168, "ARG_OF_PERICENTER": 174.1514, "MEAN_ANOMALY": 185.9752, "EPHEMERIS_TYPE": 0, "CLASSIFICATION_TYPE": "U", "NORAD_CAT_ID": 42767, "ELEMENT_SET_NO": 999, "REV_AT_EPOCH": 47174, "BSTAR": 0.00019390954, "MEAN_MOTION_DOT": 4.012e-05, "MEAN_MOTION_DDOT": 0}, "tle": {"line1": "1 42767U 17036C   25359.29556627  .00004012  00000+0  19391-3 0  9991", "line2": "2 42767  97.4537  56.7168 0002604 174.1514 185.9752 15.19195587471742"}}, "geometry": {"type": "Point", "coordinates": [37.063654516324654, 69.1047232935622]}}, {"type": "Feature", "properties": {"norad_id": 42920, "name": "FORMOSAT-5", "group": "resource", "lat": 3.0449448744784164, "lon": -105.79689678543866, "alt_km": 724.5429341910385, "timestamp": "2025-12-25T16:53:14.311469+00:00", "meta": {"OBJECT_NAME": "FORMOSAT-5", "OBJECT_ID": "2017-049A", "EPOCH": "2025-12-25T06:08:32.216352", "MEAN_MOTION": 14.50767576, "ECCENTRICITY": 0.0009843, "INCLINATION": 98.2438, "RA_OF_ASC_NODE": 73.3227, "ARG_OF_PERICENTER": 258.6501, "MEAN_ANOMALY": 101.3589, "EPHEMERIS_TYPE": 0, "CLASSIFICATION_TYPE": "U", "NORAD_CAT_ID": 42920, "ELEMENT_SET_NO": 999, "REV_AT_EPOCH": 44145, "BSTAR": 7.0790052e-05, "MEAN_MOTION_DOT": 2.35e-06, "MEAN_MOTION_DDOT": 0}, "tle": {"line1": "1 42920U 17049A   25359.25592843  .00000235  00000+0  70790-4 0  9996", "line2": "2 42920  98.2438  73.3227 0009843 258.6501 101.3589 14.50767576441451"}}, "geometry": {"type": "Point", "coordinates": [-105.79689678543866, 3.0449448744784164]}}, {"type": "Feature", "properties": {"norad_id": 42969, "name": "SENTINEL-5P", "group": "resource", "lat": -13.50849262985133, "lon": 116.04592114193176, "alt_km": 831.6463743518225, "timestamp": "2025-12-25T16:53:14.311479+00:00", "meta": {"OBJECT_NAME": "SENTINEL-5P", "OBJECT_ID": "2017-064A", "EPOCH": "2025-12-25T07:31:12.487872", "MEAN_MOTION": 14.19520573, "ECCENTRICITY": 0.00010621, "INCLINATION": 98.7802, "RA_OF_ASC_NODE": 297.7869, "ARG_OF_PERICENTER": 91.1215, "MEAN_ANOMALY": 269.0083, "EPHEMERIS_TYPE": 0, "CLASSIFICATION_TYPE": "U", "NORAD_CAT_ID": 42969, "ELEMENT_SET_NO": 999, "REV_AT_EPOCH": 42489, "BSTAR": 6.5755276e-05, "MEAN_MOTION_DOT": 9.4e-07, "MEAN_MOTION_DDOT": 0}, "tle": {"line1": "1 42969U 17064A   25359.31333898  .00000094  00000+0  65755-4 0  9994", "line2": "2 42969  98.7802 297.7869 0001062  91.1215 269.0083 14.19520573424894"}}, "geometry": {"type": "Point", "coordinates": [116.04592114193176, -13.50849262985133]}}]}